[{"OBJECT_NAME":"STARLINK-36531","OBJECT_ID":"2026-012W","EPOCH":"2026-03-09T01:19:15.182976","MEAN_MOTION":15.27596986,"ECCENTRICITY":0.00014047,"INCLINATION":43.0005,"RA_OF_ASC_NODE":318.0742,"ARG_OF_PERICENTER":278.5681,"MEAN_ANOMALY":81.5012,"EPHEMERIS_TYPE":0,"CLASSIFICATION_TYPE":"U","NORAD_CAT_ID":67513,"ELEMENT_SET_NO":999,"REV_AT_EPOCH":766,"BSTAR":0.0010327864,"MEAN_MOTION_DOT":0.00028282,"MEAN_MOTION_DDOT":0},{"OBJECT_NAME":"PUCP-SAT 1","OBJECT_ID":"2013-066AC","EPOCH":"2026-03-09T22:02:13.763904","MEAN_MOTION":15.29426022,"ECCENTRICITY":0.00136836,"INCLINATION":97.5787,"RA_OF_ASC_NODE":61.0032,"ARG_OF_PERICENTER":300.1183,"MEAN_ANOMALY":59.87,"EPHEMERIS_TYPE":0,"CLASSIFICATION_TYPE":"U","NORAD_CAT_ID":39442,"ELEMENT_SET_NO":999,"REV_AT_EPOCH":66907,"BSTAR":0.00088755185,"MEAN_MOTION_DOT":0.00025373,"MEAN_MOTION_DDOT":0}]
